NORAD_CAT_ID,OBJECT_NAME,OBJECT_TYPE,EPOCH,MEAN_MOTION,ECCENTRICITY,INCLINATION,RA_OF_ASC_NODE,ARG_OF_PERICENTER,MEAN_ANOMALY,BSTAR,MEAN_MOTION_DOT,MEAN_MOTION_DDOT,TLE_LINE0,TLE_LINE1,TLE_LINE2,SEMIMAJOR_AXIS,PERIOD,APOGEE,PERIGEE,DECAYED
53179.0,STARLINK-4276,PAYLOAD,2022-11-08 14:00:01,15.73233348,0.0008273999999999,53.2112,202.6774,275.1069,339.8218,0.00050282,0.00070772,0.0,0 STARLINK-4276,1 53179U 22083AZ  22312.58334491  .00070772  00000-0  50282-3 0  9990,2 53179  53.2112 202.6774 0008274 275.1069 339.8218 15.73233348  1307,6727.8,91.531,355.232,344.099,0.0
53179.0,STARLINK-4276,PAYLOAD,2022-11-08 22:00:00,15.73301804,0.0008336999999999,53.2119,201.0292,275.3906,68.5456,-0.00063019,-0.00088741,0.0,0 STARLINK-4276,1 53179U 22083AZ  22312.91667824 -.00088741  00000-0 -63019-3 0  9995,2 53179  53.2119 201.0292 0008337 275.3906  68.5456 15.73301804 18642,6727.605,91.527,355.079,343.861,0.0
53179.0,STARLINK-4276,PAYLOAD,2022-11-09 14:00:01,15.73051865,0.000816,53.2119,197.7282,274.3869,247.4988,0.00019919,0.00027293,0.0,0 STARLINK-4276,1 53179U 22083AZ  22313.58334491  .00027293  00000-0  19919-3 0  9993,2 53179  53.2119 197.7282 0008160 274.3869 247.4988 15.73051865 18752,6728.318,91.542,355.673,344.69199999999995,0.0
53179.0,STARLINK-4276,PAYLOAD,2022-11-10 00:00:00,15.7313932,0.0008032,53.2118,195.6687,276.4188,86.4185,-0.0003107,-0.00043986,0.0,0 STARLINK-4276,1 53179U 22083AZ  22314.00001157 -.00043986  00000-0 -31070-3 0  9992,2 53179  53.2118 195.6687 0008032 276.4188  86.4185 15.73139320  1308,6728.068,91.537,355.337,344.529,0.0
53179.0,STARLINK-4276,PAYLOAD,2022-11-10 06:00:00,15.73101745,0.0008192,53.2111,194.4313,276.8508,62.6151,0.00038291,0.00053327,0.0,0 STARLINK-4276,1 53179U 22083AZ  22314.25001157  .00053327  00000-0  38291-3 0  9999,2 53179  53.2111 194.4313 0008192 276.8508  62.6151 15.73101745 18858,6728.175,91.539,355.552,344.529,0.0
53179.0,STARLINK-4276,PAYLOAD,2022-11-10 14:00:01,15.73115789,0.0008183,53.2112,192.7802,275.4863,152.8128,0.00078797,0.00111228,0.0,0 STARLINK-4276,1 53179U 22083AZ  22314.58334491  .00111228  00000-0  78797-3 0  9995,2 53179  53.2112 192.7802 0008183 275.4863 152.8128 15.73115789  1303,6728.135,91.538,355.506,344.495,0.0
53179.0,STARLINK-4276,PAYLOAD,2022-11-10 22:00:00,15.73199479,0.0008240999999999,53.2111,191.1325,277.5102,239.6597,-0.00037158,-0.0005257,0.0,0 STARLINK-4276,1 53179U 22083AZ  22314.91667824 -.00052570  00000-0 -37158-3 0  9993,2 53179  53.2111 191.1325 0008241 277.5102 239.6597 15.73199479  1301,6727.897,91.533,355.306,344.217,0.0
53179.0,STARLINK-4276,PAYLOAD,2022-11-11 06:00:00,15.73182882,0.0008395,53.2111,189.4827,278.2778,327.7912,0.00028509,0.00039621,0.0,0 STARLINK-4276,1 53179U 22083AZ  22315.25001157  .00039621  00000-0  28509-3 0  9992,2 53179  53.2111 189.4827 0008395 278.2778 327.7912 15.73182882 19012,6727.944,91.534,355.457,344.161,0.0
53179.0,STARLINK-4276,PAYLOAD,2022-11-11 14:00:01,15.73185804,0.0008343,53.2114,187.8313,277.9809,56.9979,0.00079578,0.00112703,0.0,0 STARLINK-4276,1 53179U 22083AZ  22315.58334491  .00112703  00000-0  79578-3 0  9993,2 53179  53.2114 187.8313 0008343 277.9809  56.9979 15.73185804  1305,6727.936,91.534,355.414,344.18800000000016,0.0
53179.0,STARLINK-4276,PAYLOAD,2022-11-11 22:00:00,15.732985,0.0008343999999999,53.2113,186.1836,279.9572,143.97899999999996,-0.00041322,-0.000586,0.0,0 STARLINK-4276,1 53179U 22083AZ  22315.91667824 -.00058600  00000-0 -41322-3 0  9992,2 53179  53.2113 186.1836 0008344 279.9572 143.9790 15.73298500  1302,6727.614000000001,91.527,355.093,343.866,0.0
53179.0,STARLINK-4276,PAYLOAD,2022-11-12 14:00:01,15.73257564,0.0008468999999999,53.2109,182.882,277.0758,324.8969,0.00011625,0.00015788,0.0,0 STARLINK-4276,1 53179U 22083AZ  22316.58334491  .00015788  00000-0  11625-3 0  9998,2 53179  53.2109 182.8820 0008469 277.0758 324.8969 15.73257564 19229,6727.731,91.53,355.2940000000001,343.898,0.0
53179.0,STARLINK-4276,PAYLOAD,2022-11-12 22:00:00,15.73262443,0.0008529999999999,53.21100000000001,181.2342,277.3375,53.6399,-0.0008369,-0.00117073,0.0,0 STARLINK-4276,1 53179U 22083AZ  22316.91667824 -.00117073  00000-0 -83690-3 0  9997,2 53179  53.2110 181.2342 0008530 277.3375  53.6399 15.73262443 19271,6727.717,91.53,355.321,343.843,0.0
53179.0,STARLINK-4276,PAYLOAD,2022-11-13 00:00:00,15.73227126,0.0008594,53.2112,180.8222,277.2799,165.9491,-0.0005421,-0.00076302,0.0,0 STARLINK-4276,1 53179U 22083AZ  22317.00001157 -.00076302  00000-0 -54210-3 0  9994,2 53179  53.2112 180.8222 0008594 277.2799 165.9491 15.73227126  1308,6727.818,91.532,355.465,343.901,0.0
53179.0,STARLINK-4276,PAYLOAD,2022-11-13 14:00:01,15.73119943,0.0008667999999999,53.2115,177.9329,274.9869,233.8302,0.00037488,0.00052242,0.0,0 STARLINK-4276,1 53179U 22083AZ  22317.58334491  .00052242  00000-0  37488-3 0  9990,2 53179  53.2115 177.9329 0008668 274.9869 233.8302 15.73119943 19380,6728.123000000001,91.538,355.82,344.156,0.0
53179.0,STARLINK-4276,PAYLOAD,2022-11-13 22:00:00,15.73154313,0.0008655,53.2115,176.2854,277.7383,319.9393,0.00041062,0.00057402,0.0,0 STARLINK-4276,1 53179U 22083AZ  22317.91667824  .00057402  00000-0  41062-3 0  9992,2 53179  53.2115 176.2854 0008655 277.7383 319.9393 15.73154313  1302,6728.025,91.536,355.714,344.06699999999995,0.0
53179.0,STARLINK-4276,PAYLOAD,2022-11-14 14:00:01,15.73227532,0.0008703,53.212,172.9814,276.3455,139.1907,3.2541e-05,3.952e-05,0.0,0 STARLINK-4276,1 53179U 22083AZ  22318.58334491  .00003952  00000-0  32541-4 0  9991,2 53179  53.2120 172.9814 0008703 276.3455 139.1907 15.73227532  1303,6727.816999999999,91.532,355.537,343.826,0.0
53179.0,STARLINK-4276,PAYLOAD,2022-11-14 22:00:00,15.73228764,0.0008795,53.2114,171.3367,278.4904,225.9706,-0.00042271,-0.00059762,0.0,0 STARLINK-4276,1 53179U 22083AZ  22318.91667824 -.00059762  00000-0 -42271-3 0  9999,2 53179  53.2114 171.3367 0008795 278.4904 225.9706 15.73228764  1304,6727.813,91.532,355.595,343.761,0.0
53179.0,STARLINK-4276,PAYLOAD,2022-11-15 06:00:00,15.73227277,0.0008799,53.2139,169.6792,278.1369,315.2846,-0.00020644,-0.00029609,0.0,0 STARLINK-4276,1 53179U 22083AZ  22319.25001157 -.00029609  00000-0 -20644-3 0  9995,2 53179  53.2139 169.6792 0008799 278.1369 315.2846 15.73227277 19641,6727.816999999999,91.532,355.602,343.76300000000015,0.0
53179.0,STARLINK-4276,PAYLOAD,2022-11-15 14:00:01,15.73209974,0.0008812999999999,53.2121,168.0352,277.4547,44.8785,-0.00013883,-0.00020127,0.0,0 STARLINK-4276,1 53179U 22083AZ  22319.58334491 -.00020127  00000-0 -13883-3 0  9994,2 53179  53.2121 168.0352 0008813 277.4547  44.8785 15.73209974  1309,6727.8669999999975,91.533,355.661,343.802,0.0
53179.0,STARLINK-4276,PAYLOAD,2022-11-15 22:00:00,15.73182552,0.0008839,53.2121,166.3878,279.746,131.52,0.00034806,0.00048573,0.0,0 STARLINK-4276,1 53179U 22083AZ  22319.91667824  .00048573  00000-0  34806-3 0  9991,2 53179  53.2121 166.3878 0008839 279.7460 131.5200 15.73182552  1308,6727.945,91.534,355.75699999999995,343.86300000000006,0.0
53179.0,STARLINK-4276,PAYLOAD,2022-11-16 06:00:00,15.73249924,0.0008882,53.2121,164.7359,279.6562,220.5346,-0.00068622,-0.00096307,0.0,0 STARLINK-4276,1 53179U 22083AZ  22320.25001157 -.00096307  00000-0 -68622-3 0  9994,2 53179  53.2121 164.7359 0008882 279.6562 220.5346 15.73249924 19805,6727.753000000002,91.53,355.593,343.642,0.0
53179.0,STARLINK-4276,PAYLOAD,2022-11-16 14:00:01,15.73188441,0.000886,53.2143,163.0791,278.1973,311.0062,0.00055843,0.00078612,0.0,0 STARLINK-4276,1 53179U 22083AZ  22320.58335648  .00078612  00000-0  55843-3 0  9993,2 53179  53.2143 163.0791 0008860 278.1973 311.0062 15.73188441 19859,6727.928000000001,91.534,355.754,343.832,0.0
53179.0,STARLINK-4276,PAYLOAD,2022-11-16 20:00:01,15.73261987,0.0008894,53.2158,161.8403,279.4168,286.4224,-0.00054732,-0.00077151,0.0,0 STARLINK-4276,1 53179U 22083AZ  22320.83334491 -.00077151  00000-0 -54732-3 0  9991,2 53179  53.2158 161.8403 0008894 279.4168 286.4224 15.73261987 19894,6727.718000000003,91.53,355.56699999999995,343.6,0.0
53179.0,STARLINK-4276,PAYLOAD,2022-11-16 22:00:08,15.732484,0.0008904,53.2163,161.4269,279.5293,39.0173,-0.00048546,-0.00068531,0.0,0 STARLINK-4276,1 53179U 22083AZ  22320.91675926 -.00068531  00000-0 -48546-3 0  9999,2 53179  53.2163 161.4269 0008904 279.5293  39.0173 15.73248400  1305,6727.757,91.53,355.61300000000006,343.63199999999995,0.0
53179.0,STARLINK-4276,PAYLOAD,2022-11-17 06:00:00,15.73250313,0.0008947,53.2121,159.7881,280.2989,126.7439,-0.00047361,-0.00066894,0.0,0 STARLINK-4276,1 53179U 22083AZ  22321.25001157 -.00066894  00000-0 -47361-3 0  9990,2 53179  53.2121 159.7881 0008947 280.2989 126.7439 15.73250313 19952,6727.752,91.53,355.636,343.597,0.0
53179.0,STARLINK-4276,PAYLOAD,2022-11-17 14:00:01,15.73187774,0.000883,53.2125,158.1376,279.5575,216.4547,0.00036494,0.00050986,0.0,0 STARLINK-4276,1 53179U 22083AZ  22321.58334491  .00050986  00000-0  36494-3 0  9994,2 53179  53.2125 158.1376 0008830 279.5575 216.4547 15.73187774  1308,6727.93,91.534,355.736,343.85400000000016,0.0
53179.0,STARLINK-4276,PAYLOAD,2022-11-17 22:00:00,15.7321112,0.0008875999999999,53.2124,156.49,282.0111,302.9414,-0.0002346,-0.00033526,0.0,0 STARLINK-4276,1 53179U 22083AZ  22321.91667824 -.00033526  00000-0 -23460-3 0  9992,2 53179  53.2124 156.4900 0008876 282.0111 302.9414 15.73211120  1303,6727.863,91.533,355.7,343.75699999999995,0.0
53179.0,STARLINK-4276,PAYLOAD,2022-11-18 14:00:01,15.73180431,0.0008897,53.2121,153.189,280.6214,122.1905,0.00022544,0.00031172,0.0,0 STARLINK-4276,1 53179U 22083AZ  22322.58334491  .00031172  00000-0  22544-3 0  9992,2 53179  53.2121 153.1890 0008897 280.6214 122.1905 15.73180431 20165,6727.951,91.534,355.802,343.83,0.0
53179.0,STARLINK-4276,PAYLOAD,2022-11-18 22:00:00,15.73206112,0.0008969,53.212,151.5412,283.1231,208.6784,0.00016237,0.00022276,0.0,0 STARLINK-4276,1 53179U 22083AZ  22322.91667824  .00022276  00000-0  16237-3 0  9995,2 53179  53.2120 151.5412 0008969 283.1231 208.6784 15.73206112 20220,6727.878000000002,91.533,355.777,343.709,0.0
